[{"OBJECT_NAME":"ICEYE-X31","OBJECT_ID":"2023-174AJ","EPOCH":"2026-03-09T23:06:20.433600","MEAN_MOTION":15.30950809,"ECCENTRICITY":0.00015021,"INCLINATION":97.3851,"RA_OF_ASC_NODE":144.9524,"ARG_OF_PERICENTER":332.6589,"MEAN_ANOMALY":27.4572,"EPHEMERIS_TYPE":0,"CLASSIFICATION_TYPE":"U","NORAD_CAT_ID":58288,"ELEMENT_SET_NO":999,"REV_AT_EPOCH":12955,"BSTAR":0.00066288467,"MEAN_MOTION_DOT":0.00019777,"MEAN_MOTION_DDOT":0},{"OBJECT_NAME":"STARLINK-32738","OBJECT_ID":"2025-034T","EPOCH":"2026-03-09T17:01:57.684288","MEAN_MOTION":15.30207624,"ECCENTRICITY":6.133e-5,"INCLINATION":53.1612,"RA_OF_ASC_NODE":257.7598,"ARG_OF_PERICENTER":28.0915,"MEAN_ANOMALY":332.0119,"EPHEMERIS_TYPE":0,"CLASSIFICATION_TYPE":"U","NORAD_CAT_ID":63046,"ELEMENT_SET_NO":999,"REV_AT_EPOCH":5909,"BSTAR":0.00084608552,"MEAN_MOTION_DOT":0.00024789,"MEAN_MOTION_DDOT":0}]
